PANDORA
1 67395U 80229J   26083.65958333  .00000000  00000-0  37770-3 0    02
2 67395  97.8054  83.6403 0006434  57.6013  35.1499 14.87914938    03
